[{"OBJECT_NAME":"TIANPING 2A","OBJECT_ID":"2022-032A","EPOCH":"2026-03-09T22:58:37.953408","MEAN_MOTION":14.9690979,"ECCENTRICITY":0.00109299,"INCLINATION":97.5994,"RA_OF_ASC_NODE":109.5163,"ARG_OF_PERICENTER":146.1091,"MEAN_ANOMALY":214.0831,"EPHEMERIS_TYPE":0,"CLASSIFICATION_TYPE":"U","NORAD_CAT_ID":52153,"ELEMENT_SET_NO":999,"REV_AT_EPOCH":21499,"BSTAR":3.4221979e-5,"MEAN_MOTION_DOT":3.37e-6,"MEAN_MOTION_DDOT":0},{"OBJECT_NAME":"POEM-2","OBJECT_ID":"2023-057A","EPOCH":"2026-03-09T23:37:57.201312","MEAN_MOTION":14.94660083,"ECCENTRICITY":0.00213726,"INCLINATION":9.8873,"RA_OF_ASC_NODE":262.7521,"ARG_OF_PERICENTER":321.9306,"MEAN_ANOMALY":37.9396,"EPHEMERIS_TYPE":0,"CLASSIFICATION_TYPE":"U","NORAD_CAT_ID":56308,"ELEMENT_SET_NO":999,"REV_AT_EPOCH":15739,"BSTAR":0.0002074301,"MEAN_MOTION_DOT":3.02e-5,"MEAN_MOTION_DDOT":0}]
